{
  "type": "FeatureCollection",
  "features": [
    {
      "type": "Feature",
      "properties": {
        "norad_id": 32161,
        "name": "FENGYUN 1C DEB",
        "group": "fengyun-1c-debris",
        "lat": 70.11197708313325,
        "lon": 72.89664645877164,
        "alt_km": 977.9251480650264,
        "timestamp": "2025-12-19T22:41:52.678924+00:00",
        "meta_object_name": "FENGYUN 1C DEB",
        "meta_object_id": "1999-025CTF",
        "meta_epoch": "2025-12-18T13:48:11.600064",
        "meta_mean_motion": 14.01879839,
        "meta_eccentricity": 0.01354392,
        "meta_inclination": 98.8341,
        "meta_ra_of_asc_node": 97.029,
        "meta_arg_of_pericenter": 263.8401,
        "meta_mean_anomaly": 94.7321,
        "meta_ephemeris_type": 0,
        "meta_classification_type": "U",
        "meta_norad_cat_id": 32161,
        "meta_element_set_no": 999,
        "meta_rev_at_epoch": 63511,
        "meta_bstar": 0.00041869271,
        "meta_mean_motion_dot": 6.46e-06,
        "meta_mean_motion_ddot": 0,
        "tle_line1": "1 32161U 99025CTF 25352.57513426  .00000646  00000+0  41869-3 0  9994",
        "tle_line2": "2 32161  98.8341  97.0290 0135439 263.8401  94.7321 14.01879839635116"
      },
      "geometry": {
        "type": "Point",
        "coordinates": [
          72.89664645877164,
          70.11197708313325
        ]
      }
    },
    {
      "type": "Feature",
      "properties": {
        "norad_id": 32162,
        "name": "FENGYUN 1C DEB",
        "group": "fengyun-1c-debris",
        "lat": -29.508284368361576,
        "lon": -145.2894080234803,
        "alt_km": 675.5041318340454,
        "timestamp": "2025-12-19T22:41:52.678934+00:00",
        "meta_object_name": "FENGYUN 1C DEB",
        "meta_object_id": "1999-025CTG",
        "meta_epoch": "2025-12-18T09:36:42.176160",
        "meta_mean_motion": 14.62107639,
        "meta_eccentricity": 0.00478844,
        "meta_inclination": 99.463,
        "meta_ra_of_asc_node": 38.3597,
        "meta_arg_of_pericenter": 153.8271,
        "meta_mean_anomaly": 206.5361,
        "meta_ephemeris_type": 0,
        "meta_classification_type": "U",
        "meta_norad_cat_id": 32162,
        "meta_element_set_no": 999,
        "meta_rev_at_epoch": 95001,
        "meta_bstar": 0.0011169417,
        "meta_mean_motion_dot": 5.648e-05,
        "meta_mean_motion_ddot": 0,
        "tle_line1": "1 32162U 99025CTG 25352.40048815  .00005648  00000+0  11169-2 0  9998",
        "tle_line2": "2 32162  99.4630  38.3597 0047884 153.8271 206.5361 14.62107639950017"
      },
      "geometry": {
        "type": "Point",
        "coordinates": [
          -145.2894080234803,
          -29.508284368361576
        ]
      }
    },
    {
      "type": "Feature",
      "properties": {
        "norad_id": 32163,
        "name": "FENGYUN 1C DEB",
        "group": "fengyun-1c-debris",
        "lat": -74.30491462385542,
        "lon": 37.42347795913905,
        "alt_km": 755.9175899217644,
        "timestamp": "2025-12-19T22:41:52.678945+00:00",
        "meta_object_name": "FENGYUN 1C DEB",
        "meta_object_id": "1999-025CTH",
        "meta_epoch": "2025-12-17T06:09:38.740032",
        "meta_mean_motion": 14.43153942,
        "meta_eccentricity": 0.00514789,
        "meta_inclination": 99.5454,
        "meta_ra_of_asc_node": 357.6283,
        "meta_arg_of_pericenter": 21.6081,
        "meta_mean_anomaly": 338.7262,
        "meta_ephemeris_type": 0,
        "meta_classification_type": "U",
        "meta_norad_cat_id": 32163,
        "meta_element_set_no": 999,
        "meta_rev_at_epoch": 61041,
        "meta_bstar": 0.00073174998,
        "meta_mean_motion_dot": 2.443e-05,
        "meta_mean_motion_ddot": 0,
        "tle_line1": "1 32163U 99025CTH 25351.25669838  .00002443  00000+0  73175-3 0  9991",
        "tle_line2": "2 32163  99.5454 357.6283 0051478  21.6081 338.7262 14.43153942610419"
      },
      "geometry": {
        "type": "Point",
        "coordinates": [
          37.42347795913905,
          -74.30491462385542
        ]
      }
    },
    {
      "type": "Feature",
      "properties": {
        "norad_id": 32167,
        "name": "FENGYUN 1C DEB",
        "group": "fengyun-1c-debris",
        "lat": -14.197627175609487,
        "lon": -9.48734779267944,
        "alt_km": 691.225914925597,
        "timestamp": "2025-12-19T22:41:52.678954+00:00",
        "meta_object_name": "FENGYUN 1C DEB",
        "meta_object_id": "1999-025CTM",
        "meta_epoch": "2025-12-16T05:49:26.785632",
        "meta_mean_motion": 14.30987892,
        "meta_eccentricity": 0.01716497,
        "meta_inclination": 98.4935,
        "meta_ra_of_asc_node": 344.7253,
        "meta_arg_of_pericenter": 31.4386,
        "meta_mean_anomaly": 329.6921,
        "meta_ephemeris_type": 0,
        "meta_classification_type": "U",
        "meta_norad_cat_id": 32167,
        "meta_element_set_no": 999,
        "meta_rev_at_epoch": 62725,
        "meta_bstar": 0.00039856594,
        "meta_mean_motion_dot": 1.185e-05,
        "meta_mean_motion_ddot": 0,
        "tle_line1": "1 32167U 99025CTM 25350.24267113  .00001185  00000+0  39857-3 0  9994",
        "tle_line2": "2 32167  98.4935 344.7253 0171649  31.4386 329.6921 14.30987892627255"
      },
      "geometry": {
        "type": "Point",
        "coordinates": [
          -9.48734779267944,
          -14.197627175609487
        ]
      }
    },
    {
      "type": "Feature",
      "properties": {
        "norad_id": 32168,
        "name": "FENGYUN 1C DEB",
        "group": "fengyun-1c-debris",
        "lat": 21.832345754041835,
        "lon": -110.49958140285209,
        "alt_km": 856.825875471829,
        "timestamp": "2025-12-19T22:41:52.678965+00:00",
        "meta_object_name": "FENGYUN 1C DEB",
        "meta_object_id": "1999-025CTN",
        "meta_epoch": "2025-12-18T11:16:29.840448",
        "meta_mean_motion": 13.86192927,
        "meta_eccentricity": 0.02433814,
        "meta_inclination": 101.6567,
        "meta_ra_of_asc_node": 62.9222,
        "meta_arg_of_pericenter": 224.048,
        "meta_mean_anomaly": 134.1048,
        "meta_ephemeris_type": 0,
        "meta_classification_type": "U",
        "meta_norad_cat_id": 32168,
        "meta_element_set_no": 999,
        "meta_rev_at_epoch": 63559,
        "meta_bstar": 0.0032413664,
        "meta_mean_motion_dot": 4.66e-05,
        "meta_mean_motion_ddot": 0,
        "tle_line1": "1 32168U 99025CTN 25352.46978982  .00004660  00000+0  32414-2 0  9996",
        "tle_line2": "2 32168 101.6567  62.9222 0243381 224.0480 134.1048 13.86192927635599"
      },
      "geometry": {
        "type": "Point",
        "coordinates": [
          -110.49958140285209,
          21.832345754041835
        ]
      }
    },
    {
      "type": "Feature",
      "properties": {
        "norad_id": 32169,
        "name": "FENGYUN 1C DEB",
        "group": "fengyun-1c-debris",
        "lat": 43.78813863167368,
        "lon": 174.6389320570479,
        "alt_km": 648.9428503675326,
        "timestamp": "2025-12-19T22:41:52.678975+00:00",
        "meta_object_name": "FENGYUN 1C DEB",
        "meta_object_id": "1999-025CTP",
        "meta_epoch": "2025-12-19T19:13:30.605088",
        "meta_mean_motion": 14.6806048,
        "meta_eccentricity": 0.0033552,
        "meta_inclination": 98.5576,
        "meta_ra_of_asc_node": 182.7868,
        "meta_arg_of_pericenter": 96.8847,
        "meta_mean_anomaly": 263.6175,
        "meta_ephemeris_type": 0,
        "meta_classification_type": "U",
        "meta_norad_cat_id": 32169,
        "meta_element_set_no": 999,
        "meta_rev_at_epoch": 96722,
        "meta_bstar": 0.0026981,
        "meta_mean_motion_dot": 0.00015594,
        "meta_mean_motion_ddot": 0,
        "tle_line1": "1 32169U 99025CTP 25353.80104867  .00015594  00000+0  26981-2 0  9999",
        "tle_line2": "2 32169  98.5576 182.7868 0033552  96.8847 263.6175 14.68060480967226"
      },
      "geometry": {
        "type": "Point",
        "coordinates": [
          174.6389320570479,
          43.78813863167368
        ]
      }
    },
    {
      "type": "Feature",
      "properties": {
        "norad_id": 32171,
        "name": "FENGYUN 1C DEB",
        "group": "fengyun-1c-debris",
        "lat": 9.749844613867115,
        "lon": 75.14205536356671,
        "alt_km": 1466.4539411079331,
        "timestamp": "2025-12-19T22:41:52.678985+00:00",
        "meta_object_name": "FENGYUN 1C DEB",
        "meta_object_id": "1999-025CTR",
        "meta_epoch": "2025-12-17T23:26:00.348288",
        "meta_mean_motion": 13.42609487,
        "meta_eccentricity": 0.04889541,
        "meta_inclination": 102.8055,
        "meta_ra_of_asc_node": 250.4011,
        "meta_arg_of_pericenter": 354.7461,
        "meta_mean_anomaly": 20.6247,
        "meta_ephemeris_type": 0,
        "meta_classification_type": "U",
        "meta_norad_cat_id": 32171,
        "meta_element_set_no": 999,
        "meta_rev_at_epoch": 60686,
        "meta_bstar": 0.0033377521,
        "meta_mean_motion_dot": 3.796e-05,
        "meta_mean_motion_ddot": 0,
        "tle_line1": "1 32171U 99025CTR 25351.97639292  .00003796  00000+0  33378-2 0  9992",
        "tle_line2": "2 32171 102.8055 250.4011 0488954 354.7461  20.6247 13.42609487606869"
      },
      "geometry": {
        "type": "Point",
        "coordinates": [
          75.14205536356671,
          9.749844613867115
        ]
      }
    }
  ]
}